SCD 1                   
1 22490U 93009B   26192.06025916  .00000300  00000+0  31538-4 0  9993
2 22490  24.9701  60.1718 0041946  30.9459 124.5127 14.46127708764570
TECHSAT 1B (GO-32)      
1 25397U 98043D   26192.50891442  .00000018  00000+0  27797-4 0  9997
2 25397  99.0082 185.8824 0002086 120.4756 239.6628 14.24432894454799
SCD 2                   
1 25504U 98060A   26192.32589184  .00000293  00000+0  31159-4 0  9995
2 25504  24.9954 283.2997 0016868  19.0312  25.2104 14.45534120463822
DLR-TUBSAT              
1 25757U 99029B   26192.54275302  .00000023  00000+0  17680-4 0  9993
2 25757  98.6708 188.8494 0012963 276.8135  83.1584 14.52432810436788
TERRA                   
1 25994U 99068A   26192.47542442  .00000200  00000+0  49631-4 0  9991
2 25994  97.9443 241.0571 0003264 130.0650 342.8269 14.61121874413150
MAROC-TUBSAT            
1 27004U 01056D   26192.45642278 -.00000018  00000+0  31796-4 0  9992
2 27004  99.8095   9.7747 0020627  81.3095 309.4515 13.70263421229517
AQUA                    
1 27424U 02022A   26192.49412377  .00000416  00000+0  92361-4 0  9997
2 27424  98.4293 162.2652 0000827 106.8613   6.1893 14.62193870286826
SHIYAN-1 (SY-1)         
1 28220U 04012A   26192.18744073  .00008372  00000+0  25401-3 0  9999
2 28220  97.8692 271.8248 0004066 294.6844  65.3974 15.34386013214771
AURA                    
1 28376U 04026A   26192.49855291  .00000404  00000+0  91509-4 0  9996
2 28376  98.3429 149.1552 0001275  92.5173 267.6173 14.61364564169763
IRS-P5 (CARTOSAT-1)     
1 28649U 05017A   26192.50528459  .00000631  00000+0  68943-4 0  9993
2 28649  97.5306 214.4665 0001581  56.0921 304.0448 14.91111597147449
SINAH 1                 
1 28893U 05043D   26192.51949622  .00000157  00000+0  39191-4 0  9999
2 28893  98.2888 326.9886 0014123 195.1364 164.9418 14.64174076104083
RESURS-DK 1             
1 29228U 06021A   26192.49278531  .00001025  00000+0  63526-4 0  9994
2 29228  69.9312 276.6321 0006910 275.2838  84.7539 15.13311149106252
ARIRANG-2 (KOMPSAT-2)   
1 29268U 06031A   26192.54784192 -.00000111  00000+0 -12318-4 0  9990
2 29268  97.8316  15.8170 0014561   2.4609  73.5034 14.64673555 65046
LAPAN-TUBSAT            
1 29709U 07001A   26192.42851277  .00001132  00000+0  13597-3 0  9995
2 29709  98.1353 192.1998 0013575 104.6507 255.6213 14.85976920 54757
HAIYANG-1B              
1 31113U 07010A   26192.47698824  .00000042  00000+0  31668-4 0  9998
2 31113  98.3512 173.3820 0014531 126.0574 234.1958 14.31032731  4115
COSMO-SKYMED 1          
1 31598U 07023A   26192.52961188  .00001326  00000+0  11985-3 0  9996
2 31598  97.8843  24.5913 0001131 100.0621 260.0728 14.97208879 33430
TERRASAR-X              
1 31698U 07026A   26188.47915537  .00000240  00000+0  14624-4 0  9994
2 31698  97.4461 195.8972 0001878  86.9540 273.1909 15.19153986 56300
WORLDVIEW-1 (WV-1)      
1 32060U 07041A   26192.51385014  .00003456  00000+0  14336-3 0  9997
2 32060  97.3895 311.9150 0001200 227.0362 133.0775 15.24532947 46580
YAOGAN-3                
1 32289U 07055A   26192.49126794  .00001571  00000+0  16515-3 0  9997
2 32289  97.8150 222.1286 0001502  79.9091 280.2296 14.90872364  9497
COSMO-SKYMED 2          
1 32376U 07059A   26192.53233338  .00000210  00000+0  32922-4 0  9996
2 32376  97.8891  15.7778 0001437  93.2695 266.8682 14.82148801  5616
RADARSAT-2              
1 32382U 07061A   26192.52761806  .00000117  00000+0  62428-4 0  9991
2 32382  98.5785 199.1122 0001332  82.9766 277.1567 14.29983060969432
CARTOSAT-2A             
1 32783U 08021A   26192.46557307  .00000230  00000+0  37590-4 0  9993
2 32783  97.7627 240.3442 0012782  38.4190 321.7929 14.79273417982396
HUANJING 1A (HJ-1A)     
1 33320U 08041A   26192.50719836  .00000897  00000+0  11339-3 0  9996
2 33320  97.6693 177.4064 0020518  60.7867 299.5396 14.84043327962019
HUANJING 1B (HJ-1B)     
1 33321U 08041B   26192.55488625  .00000430  00000+0  58047-4 0  9992
2 33321  97.6531 180.5503 0037913 102.5905 257.9553 14.83361246962025
GEOEYE 1                
1 33331U 08042A   26192.47218455  .00000215  00000+0  49417-4 0  9999
2 33331  98.1328 266.1116 0004221 359.3783   0.7414 14.64647565953704
THEOS                   
1 33396U 08049A   26192.48745220  .00000407  00000+0  21091-3 0  9993
2 33396  98.5564 248.9809 0001111  86.6429 273.4875 14.20137895921415
COSMO-SKYMED 3          
1 33412U 08054A   26192.51101520  .00001217  00000+0  85300-4 0  9995
2 33412  97.8263  51.4847 0015580 177.9797 182.1495 15.07098234960605
YAOGAN-4                
1 33446U 08061A   26191.23904740  .00000606  00000+0  80608-4 0  9990
2 33446  97.9305 124.5797 0014279   1.9835 358.1433 14.83245790949089
GOSAT (IBUKI)           
1 33492U 09002A   26191.25211760 -.00000055  00000+0 -12238-5 0  9997
2 33492  98.0915 302.0457 0001034  88.6000 271.5323 14.67535064934848
DEIMOS-1                
1 35681U 09041A   26192.53606130  .00000531  00000+0  85543-4 0  9998
2 35681  97.7426 348.7122 0002721  97.3787 262.7732 14.75262635910471
DUBAISAT-1              
1 35682U 09041B   26192.30473032  .00000460  00000+0  75658-4 0  9994
2 35682  98.0078 325.3024 0010228   1.3845 358.7391 14.75163101908654
